OPS 7218 (TRANSIT 16)   
1 02807U 67048A   26115.68298934  .00000109  00000+0  15284-3 0  9998
2 02807  89.6762 349.6405 0022189  88.3271 331.9559 13.50755238900844
OPS 4947 (TRANSIT 17)   
1 02965U 67092A   26115.77014309  .00000086  00000+0  11061-3 0  9997
2 02965  89.2586  14.2693 0046444 204.7465 220.7438 13.53489155889103
OPS 7034 (TRANSIT 18)   
1 03133U 68012A   26115.86267455  .00000140  00000+0  19593-3 0  9999
2 03133  90.0227 273.9687 0075204 140.9766 333.3897 13.51599522587306
NNSS 19 (TRANSIT 19)    
1 04507U 70067A   26115.79554622  .00000157  00000+0  21017-3 0  9997
2 04507  90.0147 234.6343 0169853 264.3129  93.8634 13.51350247740323
NNSS 20 (TRANSIT 20)    
1 06909U 73081A   26115.85781934  .00000154  00000+0  14572-3 0  9994
2 06909  89.8585 253.0134 0155479  36.7672 324.4035 13.71492796821998
TRANSAT                 
1 10457U 77106A   26115.88577354  .00000097  00000+0  13764-3 0  9999
2 10457  89.6456  73.7782 0025913 162.1015 213.3249 13.48964775385528
NOVA 1                  
1 12458U 81044A   26115.86912704  .00000080  00000+0  16729-3 0  9994
2 12458  89.8441  89.4037 0016260  93.6054 324.7785 13.23293028169600
NOVA 3                  
1 15362U 84110A   26115.83364411  .00000074  00000+0  15541-3 0  9995
2 15362  90.1170  82.0366 0030387 322.9558  47.4952 13.23063819  4716
OSCAR 30                
1 15935U 85066A   26115.86983796  .00000104  00000+0  16966-3 0  9994
2 15935  90.1528 101.9473 0169716  65.5441   4.3856 13.36102999982446
OSCAR 24                
1 15936U 85066B   26115.86682230  .00000098  00000+0  15800-3 0  9992
2 15936  90.1690  94.5866 0170869  72.0035 350.0573 13.35960120984348
POLAR BEAR              
1 17070U 86088A   26115.71657353  .00000079  00000+0  69629-4 0  9998
2 17070  89.6231 178.4702 0041435  77.4537  35.6431 13.75279506978208
OSCAR 27                
1 18361U 87080A   26115.83330655  .00000097  00000+0  14621-3 0  9992
2 18361  90.3684  84.2079 0102924 199.4579 160.2628 13.44932149893592
OSCAR 29                
1 18362U 87080B   26115.88232715  .00000087  00000+0  13243-3 0  9994
2 18362  90.3692  84.6784 0103827 222.9852 164.5168 13.44471326893128
OSCAR 23                
1 19070U 88033A   26115.73330329  .00000087  00000+0  15709-3 0  9993
2 19070  90.3325  20.6150 0189548 167.2104 248.4312 13.27809681840316
OSCAR 32                
1 19071U 88033B   26115.77014225  .00000047  00000+0  74988-4 0  9993
2 19071  90.3329  20.7549 0188359 153.8761 267.7430 13.27973614840440
NOVA 2                  
1 19223U 88052A   26115.85784799  .00000074  00000+0  15425-3 0  9992
2 19223  89.9834  78.0345 0030787   7.7315  50.0078 13.22953017827218
OSCAR 25                
1 19419U 88074A   26115.81680836  .00000072  00000+0  10886-3 0  9990
2 19419  90.0453  20.7459 0094517 223.0887 207.5140 13.42650272844399
