[{"OBJECT_NAME":"OPS 7218 (TRANSIT 16)","OBJECT_ID":"1967-048A","EPOCH":"2026-04-25T16:23:30.278976","MEAN_MOTION":13.50755238,"ECCENTRICITY":0.0022189,"INCLINATION":89.6762,"RA_OF_ASC_NODE":349.6405,"ARG_OF_PERICENTER":88.3271,"MEAN_ANOMALY":331.9559,"EPHEMERIS_TYPE":0,"CLASSIFICATION_TYPE":"U","NORAD_CAT_ID":2807,"ELEMENT_SET_NO":999,"REV_AT_EPOCH":90084,"BSTAR":0.00015284,"MEAN_MOTION_DOT":1.09e-6,"MEAN_MOTION_DDOT":0},{"OBJECT_NAME":"OPS 4947 (TRANSIT 17)","OBJECT_ID":"1967-092A","EPOCH":"2026-04-25T18:29:00.362976","MEAN_MOTION":13.53489155,"ECCENTRICITY":0.0046444,"INCLINATION":89.2586,"RA_OF_ASC_NODE":14.2693,"ARG_OF_PERICENTER":204.7465,"MEAN_ANOMALY":220.7438,"EPHEMERIS_TYPE":0,"CLASSIFICATION_TYPE":"U","NORAD_CAT_ID":2965,"ELEMENT_SET_NO":999,"REV_AT_EPOCH":88910,"BSTAR":0.00011061,"MEAN_MOTION_DOT":8.6e-7,"MEAN_MOTION_DDOT":0},{"OBJECT_NAME":"OPS 7034 (TRANSIT 18)","OBJECT_ID":"1968-012A","EPOCH":"2026-04-25T20:42:15.081120","MEAN_MOTION":13.51599522,"ECCENTRICITY":0.0075204,"INCLINATION":90.0227,"RA_OF_ASC_NODE":273.9687,"ARG_OF_PERICENTER":140.9766,"MEAN_ANOMALY":333.3897,"EPHEMERIS_TYPE":0,"CLASSIFICATION_TYPE":"U","NORAD_CAT_ID":3133,"ELEMENT_SET_NO":999,"REV_AT_EPOCH":58730,"BSTAR":0.00019593,"MEAN_MOTION_DOT":1.4e-6,"MEAN_MOTION_DDOT":0},{"OBJECT_NAME":"NNSS 19 (TRANSIT 19)","OBJECT_ID":"1970-067A","EPOCH":"2026-04-25T19:05:35.193408","MEAN_MOTION":13.51350247,"ECCENTRICITY":0.0169853,"INCLINATION":90.0147,"RA_OF_ASC_NODE":234.6343,"ARG_OF_PERICENTER":264.3129,"MEAN_ANOMALY":93.8634,"EPHEMERIS_TYPE":0,"CLASSIFICATION_TYPE":"U","NORAD_CAT_ID":4507,"ELEMENT_SET_NO":999,"REV_AT_EPOCH":74032,"BSTAR":0.00021017,"MEAN_MOTION_DOT":1.57e-6,"MEAN_MOTION_DDOT":0},{"OBJECT_NAME":"NNSS 20 (TRANSIT 20)","OBJECT_ID":"1973-081A","EPOCH":"2026-04-25T20:35:15.590976","MEAN_MOTION":13.71492796,"ECCENTRICITY":0.0155479,"INCLINATION":89.8585,"RA_OF_ASC_NODE":253.0134,"ARG_OF_PERICENTER":36.7672,"MEAN_ANOMALY":324.4035,"EPHEMERIS_TYPE":0,"CLASSIFICATION_TYPE":"U","NORAD_CAT_ID":6909,"ELEMENT_SET_NO":999,"REV_AT_EPOCH":82199,"BSTAR":0.00014572,"MEAN_MOTION_DOT":1.54e-6,"MEAN_MOTION_DDOT":0},{"OBJECT_NAME":"TRANSAT","OBJECT_ID":"1977-106A","EPOCH":"2026-04-25T21:15:30.833856","MEAN_MOTION":13.48964775,"ECCENTRICITY":0.0025913,"INCLINATION":89.6456,"RA_OF_ASC_NODE":73.7782,"ARG_OF_PERICENTER":162.1015,"MEAN_ANOMALY":213.3249,"EPHEMERIS_TYPE":0,"CLASSIFICATION_TYPE":"U","NORAD_CAT_ID":10457,"ELEMENT_SET_NO":999,"REV_AT_EPOCH":38552,"BSTAR":0.00013764,"MEAN_MOTION_DOT":9.7e-7,"MEAN_MOTION_DDOT":0},{"OBJECT_NAME":"NOVA 1","OBJECT_ID":"1981-044A","EPOCH":"2026-04-25T20:51:32.576256","MEAN_MOTION":13.23293028,"ECCENTRICITY":0.001626,"INCLINATION":89.8441,"RA_OF_ASC_NODE":89.4037,"ARG_OF_PERICENTER":93.6054,"MEAN_ANOMALY":324.7785,"EPHEMERIS_TYPE":0,"CLASSIFICATION_TYPE":"U","NORAD_CAT_ID":12458,"ELEMENT_SET_NO":999,"REV_AT_EPOCH":16960,"BSTAR":0.00016729,"MEAN_MOTION_DOT":8.0e-7,"MEAN_MOTION_DDOT":0},{"OBJECT_NAME":"NOVA 3","OBJECT_ID":"1984-110A","EPOCH":"2026-04-25T20:00:26.851104","MEAN_MOTION":13.23063819,"ECCENTRICITY":0.0030387,"INCLINATION":90.117,"RA_OF_ASC_NODE":82.0366,"ARG_OF_PERICENTER":322.9558,"MEAN_ANOMALY":47.4952,"EPHEMERIS_TYPE":0,"CLASSIFICATION_TYPE":"U","NORAD_CAT_ID":15362,"ELEMENT_SET_NO":999,"REV_AT_EPOCH":471,"BSTAR":0.00015541,"MEAN_MOTION_DOT":7.4e-7,"MEAN_MOTION_DDOT":0},{"OBJECT_NAME":"OSCAR 30","OBJECT_ID":"1985-066A","EPOCH":"2026-04-25T20:52:33.999744","MEAN_MOTION":13.36102999,"ECCENTRICITY":0.0169716,"INCLINATION":90.1528,"RA_OF_ASC_NODE":101.9473,"ARG_OF_PERICENTER":65.5441,"MEAN_ANOMALY":4.3856,"EPHEMERIS_TYPE":0,"CLASSIFICATION_TYPE":"U","NORAD_CAT_ID":15935,"ELEMENT_SET_NO":999,"REV_AT_EPOCH":98244,"BSTAR":0.00016966,"MEAN_MOTION_DOT":1.04e-6,"MEAN_MOTION_DDOT":0},{"OBJECT_NAME":"OSCAR 24","OBJECT_ID":"1985-066B","EPOCH":"2026-04-25T20:48:13.446720","MEAN_MOTION":13.3596012,"ECCENTRICITY":0.0170869,"INCLINATION":90.169,"RA_OF_ASC_NODE":94.5866,"ARG_OF_PERICENTER":72.0035,"MEAN_ANOMALY":350.0573,"EPHEMERIS_TYPE":0,"CLASSIFICATION_TYPE":"U","NORAD_CAT_ID":15936,"ELEMENT_SET_NO":999,"REV_AT_EPOCH":98434,"BSTAR":0.000158,"MEAN_MOTION_DOT":9.8e-7,"MEAN_MOTION_DDOT":0},{"OBJECT_NAME":"POLAR BEAR","OBJECT_ID":"1986-088A","EPOCH":"2026-04-25T17:11:51.952992","MEAN_MOTION":13.75279506,"ECCENTRICITY":0.0041435,"INCLINATION":89.6231,"RA_OF_ASC_NODE":178.4702,"ARG_OF_PERICENTER":77.4537,"MEAN_ANOMALY":35.6431,"EPHEMERIS_TYPE":0,"CLASSIFICATION_TYPE":"U","NORAD_CAT_ID":17070,"ELEMENT_SET_NO":999,"REV_AT_EPOCH":97820,"BSTAR":6.9629e-5,"MEAN_MOTION_DOT":7.9e-7,"MEAN_MOTION_DDOT":0},{"OBJECT_NAME":"OSCAR 27","OBJECT_ID":"1987-080A","EPOCH":"2026-04-25T19:59:57.685920","MEAN_MOTION":13.44932149,"ECCENTRICITY":0.0102924,"INCLINATION":90.3684,"RA_OF_ASC_NODE":84.2079,"ARG_OF_PERICENTER":199.4579,"MEAN_ANOMALY":160.2628,"EPHEMERIS_TYPE":0,"CLASSIFICATION_TYPE":"U","NORAD_CAT_ID":18361,"ELEMENT_SET_NO":999,"REV_AT_EPOCH":89359,"BSTAR":0.00014621,"MEAN_MOTION_DOT":9.7e-7,"MEAN_MOTION_DDOT":0},{"OBJECT_NAME":"OSCAR 29","OBJECT_ID":"1987-080B","EPOCH":"2026-04-25T21:10:33.065760","MEAN_MOTION":13.44471326,"ECCENTRICITY":0.0103827,"INCLINATION":90.3692,"RA_OF_ASC_NODE":84.6784,"ARG_OF_PERICENTER":222.9852,"MEAN_ANOMALY":164.5168,"EPHEMERIS_TYPE":0,"CLASSIFICATION_TYPE":"U","NORAD_CAT_ID":18362,"ELEMENT_SET_NO":999,"REV_AT_EPOCH":89312,"BSTAR":0.00013243,"MEAN_MOTION_DOT":8.7e-7,"MEAN_MOTION_DDOT":0},{"OBJECT_NAME":"OSCAR 23","OBJECT_ID":"1988-033A","EPOCH":"2026-04-25T17:35:57.404256","MEAN_MOTION":13.27809681,"ECCENTRICITY":0.0189548,"INCLINATION":90.3325,"RA_OF_ASC_NODE":20.615,"ARG_OF_PERICENTER":167.2104,"MEAN_ANOMALY":248.4312,"EPHEMERIS_TYPE":0,"CLASSIFICATION_TYPE":"U","NORAD_CAT_ID":19070,"ELEMENT_SET_NO":999,"REV_AT_EPOCH":84031,"BSTAR":0.00015709,"MEAN_MOTION_DOT":8.7e-7,"MEAN_MOTION_DDOT":0},{"OBJECT_NAME":"OSCAR 32","OBJECT_ID":"1988-033B","EPOCH":"2026-04-25T18:29:00.290400","MEAN_MOTION":13.27973614,"ECCENTRICITY":0.0188359,"INCLINATION":90.3329,"RA_OF_ASC_NODE":20.7549,"ARG_OF_PERICENTER":153.8761,"MEAN_ANOMALY":267.743,"EPHEMERIS_TYPE":0,"CLASSIFICATION_TYPE":"U","NORAD_CAT_ID":19071,"ELEMENT_SET_NO":999,"REV_AT_EPOCH":84044,"BSTAR":7.4988e-5,"MEAN_MOTION_DOT":4.7e-7,"MEAN_MOTION_DDOT":0},{"OBJECT_NAME":"NOVA 2","OBJECT_ID":"1988-052A","EPOCH":"2026-04-25T20:35:18.066336","MEAN_MOTION":13.22953017,"ECCENTRICITY":0.0030787,"INCLINATION":89.9834,"RA_OF_ASC_NODE":78.0345,"ARG_OF_PERICENTER":7.7315,"MEAN_ANOMALY":50.0078,"EPHEMERIS_TYPE":0,"CLASSIFICATION_TYPE":"U","NORAD_CAT_ID":19223,"ELEMENT_SET_NO":999,"REV_AT_EPOCH":82721,"BSTAR":0.00015425,"MEAN_MOTION_DOT":7.4e-7,"MEAN_MOTION_DDOT":0},{"OBJECT_NAME":"OSCAR 25","OBJECT_ID":"1988-074A","EPOCH":"2026-04-25T19:36:12.242304","MEAN_MOTION":13.42650272,"ECCENTRICITY":0.0094517,"INCLINATION":90.0453,"RA_OF_ASC_NODE":20.7459,"ARG_OF_PERICENTER":223.0887,"MEAN_ANOMALY":207.514,"EPHEMERIS_TYPE":0,"CLASSIFICATION_TYPE":"U","NORAD_CAT_ID":19419,"ELEMENT_SET_NO":999,"REV_AT_EPOCH":84439,"BSTAR":0.00010886,"MEAN_MOTION_DOT":7.2e-7,"MEAN_MOTION_DDOT":0}]
